NORAD_CAT_ID,OBJECT_NAME,OBJECT_TYPE,EPOCH,MEAN_MOTION,ECCENTRICITY,INCLINATION,RA_OF_ASC_NODE,ARG_OF_PERICENTER,MEAN_ANOMALY,BSTAR,MEAN_MOTION_DOT,MEAN_MOTION_DDOT,TLE_LINE0,TLE_LINE1,TLE_LINE2,SEMIMAJOR_AXIS,PERIOD,APOGEE,PERIGEE,DECAYED
49767.0,STARLINK-3192,PAYLOAD,2023-03-04 04:57:37,15.08866634,9.73e-05,53.2166,43.866,102.4252,257.6849,0.0019938,0.00031609,0.0,0 STARLINK-3192,1 49767U 21115AV  23063.20668500  .00031609  00000-0  19938-2 0  9995,2 49767  53.2166  43.8660 0000973 102.4252 257.6849 15.08866634 70500,6917.799,95.436,540.337,538.991,0.0
49767.0,STARLINK-3192,PAYLOAD,2023-03-04 09:43:46,15.0887603,0.0001274,53.2162,42.9733,96.8635,263.2502,0.0021399,0.00033967,0.0,0 STARLINK-3192,1 49767U 21115AV  23063.40540235  .00033967  00000-0  21399-2 0  9994,2 49767  53.2162  42.9733 0001274  96.8635 263.2502 15.08876030 69422,6917.77,95.435,540.517,538.754,0.0
49767.0,STARLINK-3192,PAYLOAD,2023-03-04 22:26:52,15.08825259,0.0001607,53.2163,40.5958,96.3121,263.8055,0.0020705,0.00032805,0.0,0 STARLINK-3192,1 49767U 21115AV  23063.93533349  .00032805  00000-0  20705-2 0  9990,2 49767  53.2163  40.5958 0001607  96.3121 263.8055 15.08825259 70610,6917.925,95.438,540.902,538.679,0.0
49767.0,STARLINK-3192,PAYLOAD,2023-03-05 04:48:25,15.08839355,0.0001184,53.2179,39.4058,83.1235,276.9892,0.0020565,0.00032592,0.0,0 STARLINK-3192,1 49767U 21115AV  23064.20029418  .00032592  00000-0  20565-2 0  9995,2 49767  53.2179  39.4058 0001184  83.1235 276.9892 15.08839355 69541,6917.882,95.438,540.566,538.928,0.0
49767.0,STARLINK-3192,PAYLOAD,2023-03-06 04:39:12,15.0887374,9.09e-05,53.2167,34.9448,87.5408,272.5689,0.0024182,0.00038443,0.0,0 STARLINK-3192,1 49767U 21115AV  23065.19389275  .00038443  00000-0  24182-2 0  9994,2 49767  53.2167  34.9448 0000909  87.5408 272.5689 15.08873740 70808,6917.777,95.435,540.271,539.013,0.0
49767.0,STARLINK-3192,PAYLOAD,2023-03-06 22:08:27,15.08838389,0.0001646,53.2185,31.6742,102.5409,257.5767,0.0015135,0.0002388,0.0,0 STARLINK-3192,1 49767U 21115AV  23065.92253869  .00023880  00000-0  15135-2 0  9991,2 49767  53.2185  31.6742 0001646 102.5409 257.5767 15.08838389 69805,6917.885,95.438,540.889,538.612,0.0
49767.0,STARLINK-3192,PAYLOAD,2023-03-07 04:30:00,15.08837161,0.0001223,53.2178,30.4858,81.675,278.438,0.0015251,0.00024065,0.0,0 STARLINK-3192,1 49767U 21115AV  23066.18750007  .00024065  00000-0  15251-2 0  9991,2 49767  53.2178  30.4858 0001223  81.6750 278.4380 15.08837161 70957,6917.889,95.438,540.6,538.908,0.0
49767.0,STARLINK-3192,PAYLOAD,2023-03-07 21:59:14,15.0884852,0.0001551,53.2171,27.2139,83.4366,276.6802,0.0012221,0.0001922,0.0,0 STARLINK-3192,1 49767U 21115AV  23066.91614441  .00019220  00000-0  12221-2 0  9994,2 49767  53.2171  27.2139 0001551  83.4366 276.6802 15.08848520 71066,6917.854,95.437,540.792,538.646,0.0
49767.0,STARLINK-3192,PAYLOAD,2023-03-08 04:20:46,15.08901838,0.0001201,53.2172,26.0248,89.7909,270.3221,0.0031371,0.00050079,0.0,0 STARLINK-3192,1 49767U 21115AV  23067.18109144  .00050079  00000-0  31371-2 0  9997,2 49767  53.2172  26.0248 0001201  89.7909 270.3221 15.08901838 71102,6917.691,95.434,540.387,538.726,0.0
49767.0,STARLINK-3192,PAYLOAD,2023-03-08 20:14:37,15.08859883,0.0002688,53.2174,23.0484,87.529,272.6009,0.00077938,0.00012144,0.0,0 STARLINK-3192,1 49767U 21115AV  23067.84349309  .00012144  00000-0  77938-3 0  9990,2 49767  53.2174  23.0484 0002688  87.5290 272.6009 15.08859883 71204,6917.82,95.436,541.544,537.825,0.0
49767.0,STARLINK-3192,PAYLOAD,2023-03-09 04:11:33,15.08840672,0.0001276,53.2175,21.5649,80.6659,279.4477,-9.6788e-05,-1.828e-05,0.0,0 STARLINK-3192,1 49767U 21115AV  23068.17469628 -.00001828  00000-0 -96788-4 0  9998,2 49767  53.2175  21.5649 0001276  80.6659 279.4477 15.08840672 71251,6917.878,95.438,540.626,538.861,0.0
49767.0,STARLINK-3192,PAYLOAD,2023-03-10 04:02:20,15.08877246,0.0001353,53.2178,17.1048,73.8093,286.3048,0.001634,0.00025839,0.0,0 STARLINK-3192,1 49767U 21115AV  23069.16829549  .00025839  00000-0  16340-2 0  9990,2 49767  53.2178  17.1048 0001353  73.8093 286.3048 15.08877246 71405,6917.767,95.435,540.568,538.696,0.0
49767.0,STARLINK-3192,PAYLOAD,2023-03-10 13:34:39,15.08845014,0.0001269,53.2174,15.3207,96.5702,263.5435,6.4744e-05,7.43e-06,0.0,0 STARLINK-3192,1 49767U 21115AV  23069.56573433  .00000743  00000-0  64744-4 0  9992,2 49767  53.2174  15.3207 0001269  96.5702 263.5435 15.08845014 71464,6917.865,95.437,540.608,538.852,0.0
49767.0,STARLINK-3192,PAYLOAD,2023-03-11 02:17:45,15.08811954,7.79e-05,53.2176,12.938,136.8649,223.2404,-0.00060296,-9.863e-05,0.0,0 STARLINK-3192,1 49767U 21115AV  23070.09566370 -.00009863  00000-0 -60296-3 0  9995,2 49767  53.2176  12.9380 0000779 136.8649 223.2404 15.08811954 71548,6917.966,95.439,540.37,539.292,0.0
49767.0,STARLINK-3192,PAYLOAD,2023-03-11 03:53:08,15.08835549,0.0001313,53.2182,12.6416,109.3872,250.7262,0.00039763,6.045e-05,0.0,0 STARLINK-3192,1 49767U 21115AV  23070.16190420  .00006045  00000-0  39763-3 0  9994,2 49767  53.2182  12.6416 0001313 109.3872 250.7262 15.08835549 71554,6917.894,95.438,540.667,538.851,0.0
49767.0,STARLINK-3192,PAYLOAD,2023-03-12 05:19:19,15.08853595,0.0001208,53.2179,7.8848,127.8361,232.274,0.0012199,0.00019187,0.0,0 STARLINK-3192,1 49767U 21115AV  23071.22175230  .00019187  00000-0  12199-2 0  9998,2 49767  53.2179   7.8848 0001208 127.8361 232.2740 15.08853595 71711,6917.839,95.437,540.54,538.868,0.0
49767.0,STARLINK-3192,PAYLOAD,2023-03-12 19:37:47,15.08848901,0.0001466,53.218,5.208,102.6537,257.4619,0.00063008,9.756e-05,0.0,0 STARLINK-3192,1 49767U 21115AV  23071.81790931  .00009756  00000-0  63008-3 0  9991,2 49767  53.2180   5.2080 0001466 102.6537 257.4619 15.08848901 71804,6917.853,95.437,540.732,538.704,0.0
49767.0,STARLINK-3192,PAYLOAD,2023-03-13 05:10:05,15.08863878,0.0002361,53.2173,3.4253,87.8953,272.2309,0.00062017,9.602e-05,0.0,0 STARLINK-3192,1 49767U 21115AV  23072.21534562  .00009602  00000-0  62017-3 0  9991,2 49767  53.2173   3.4253 0002361  87.8953 272.2309 15.08863878 70753,6917.807,95.436,541.306,538.039,0.0
49767.0,STARLINK-3192,PAYLOAD,2023-03-13 19:28:34,15.08837057,0.0001944,53.2165,0.7475,100.2189,259.9023,-0.00022152,-3.812e-05,0.0,0 STARLINK-3192,1 49767U 21115AV  23072.81150932 -.00003812  00000-0 -22152-3 0  9997,2 49767  53.2165   0.7475 0001944 100.2189 259.9023 15.08837057 71955,6917.889,95.438,541.099,538.41,0.0
49767.0,STARLINK-3192,PAYLOAD,2023-03-13 22:39:20,15.0883177,0.0001438,53.2169,0.1525,117.024,243.0899,-0.00025916,-4.409e-05,0.0,0 STARLINK-3192,1 49767U 21115AV  23072.94399122 -.00004409  00000-0 -25916-3 0  9991,2 49767  53.2169   0.1525 0001438 117.0240 243.0899 15.08831770 70861,6917.906,95.438,540.765,538.776,0.0
49767.0,STARLINK-3192,PAYLOAD,2023-03-14 05:00:53,15.08834283,0.0001244,53.2173,358.9632,109.6258,250.4868,-0.00010949,-2.03e-05,0.0,0 STARLINK-3192,1 49767U 21115AV  23073.20895307 -.00002030  00000-0 -10949-3 0  9995,2 49767  53.2173 358.9632 0001244 109.6258 250.4868 15.08834283 70905,6917.898,95.438,540.623,538.902,0.0
49767.0,STARLINK-3192,PAYLOAD,2023-03-15 04:51:39,15.08879059,0.0001248,53.2178,354.5038,79.0923,281.0209,0.0010613,0.00016661,0.0,0 STARLINK-3192,1 49767U 21115AV  23074.20253678  .00016661  00000-0  10613-2 0  9995,2 49767  53.2178 354.5038 0001248  79.0923 281.0209 15.08879059 72164,6917.761,95.435,540.489,538.763,0.0
49767.0,STARLINK-3192,PAYLOAD,2023-03-15 22:20:54,15.08836452,0.0001026,53.2179,351.2332,71.2787,288.8316,-7.4029e-05,-1.466e-05,0.0,0 STARLINK-3192,1 49767U 21115AV  23074.93118941 -.00001466  00000-0 -74029-4 0  9990,2 49767  53.2179 351.2332 0001026  71.2787 288.8316 15.08836452 71165,6917.891,95.438,540.466,539.046,0.0
49767.0,STARLINK-3192,PAYLOAD,2023-03-16 04:42:26,15.0885681,0.0001005,53.2176,350.0449,103.1138,256.9966,0.00086295,0.00013479,0.0,0 STARLINK-3192,1 49767U 21115AV  23075.19614467  .00013479  00000-0  86295-3 0  9995,2 49767  53.2176 350.0449 0001005 103.1138 256.9966 15.08856810 72315,6917.829,95.436,540.389,538.999,0.0
49767.0,STARLINK-3192,PAYLOAD,2023-03-16 19:00:55,15.08827953,0.0001466,53.2174,347.369,98.4166,261.6993,0.0014622,0.00023052,0.0,0 STARLINK-3192,1 49767U 21115AV  23075.79231408  .00023052  00000-0  14622-2 0  9993,2 49767  53.2174 347.3690 0001466  98.4166 261.6993 15.08827953 71293,6917.917,95.438,540.796,538.768,0.0
49767.0,STARLINK-3192,PAYLOAD,2023-03-16 22:11:42,15.08823743,0.0001081,53.217,346.7749,102.651,257.4603,0.0010437,0.00016354,0.0,0 STARLINK-3192,1 49767U 21115AV  23075.92479422  .00016354  00000-0  10437-2 0  9995,2 49767  53.2170 346.7749 0001081 102.6510 257.4603 15.08823743 72421,6917.93,95.439,540.543,539.047,0.0
49767.0,STARLINK-3192,PAYLOAD,2023-03-17 10:54:47,15.08840716,0.0001114,53.2168,344.3937,77.514,282.5977,0.00058283,9e-05,0.0,0 STARLINK-3192,1 49767U 21115AV  23076.45471287  .00009000  00000-0  58283-3 0  9997,2 49767  53.2168 344.3937 0001114  77.5140 282.5977 15.08840716 71394,6917.878,95.438,540.514,538.973,0.0
49767.0,STARLINK-3192,PAYLOAD,2023-03-18 02:48:38,15.08839573,0.0001308,53.2172,341.4216,76.7728,283.341,0.00021695,3.167e-05,0.0,0 STARLINK-3192,1 49767U 21115AV  23077.11711592  .00003167  00000-0  21695-3 0  9992,2 49767  53.2172 341.4216 0001308  76.7728 283.3410 15.08839573 72600,6917.882,95.438,540.652,538.842,0.0
49767.0,STARLINK-3192,PAYLOAD,2023-03-18 21:53:16,15.08843176,0.000109,53.2166,337.853,81.3308,278.7808,0.00014465,2.015e-05,0.0,0 STARLINK-3192,1 49767U 21115AV  23077.91199414  .00002015  00000-0  14465-3 0  9991,2 49767  53.2166 337.8530 0001090  81.3308 278.7808 15.08843176 71618,6917.871,95.437,540.49,538.982,0.0
49767.0,STARLINK-3192,PAYLOAD,2023-03-19 02:39:25,15.08848669,0.0001094,53.2162,336.9598,84.166,275.9457,0.00023813,3.505e-05,0.0,0 STARLINK-3192,1 49767U 21115AV  23078.11071132  .00003505  00000-0  23813-3 0  9992,2 49767  53.2162 336.9598 0001094  84.1660 275.9457 15.08848669 71648,6917.854,95.437,540.476,538.962,0.0
